[{"OBJECT_NAME":"STARLINK-1669","OBJECT_ID":"2021-012E","EPOCH":"2026-03-09T22:00:01.999584","MEAN_MOTION":15.7520865,"ECCENTRICITY":0.00087944,"INCLINATION":53.0368,"RA_OF_ASC_NODE":350.7855,"ARG_OF_PERICENTER":92.6287,"MEAN_ANOMALY":29.9444,"EPHEMERIS_TYPE":0,"CLASSIFICATION_TYPE":"U","NORAD_CAT_ID":47624,"ELEMENT_SET_NO":999,"REV_AT_EPOCH":578,"BSTAR":0.0017201852,"MEAN_MOTION_DOT":0.00271838,"MEAN_MOTION_DDOT":0},{"OBJECT_NAME":"STARLINK-36564","OBJECT_ID":"2026-014T","EPOCH":"2026-03-09T15:17:41.786880","MEAN_MOTION":15.75229144,"ECCENTRICITY":7.65e-5,"INCLINATION":97.2845,"RA_OF_ASC_NODE":313.5439,"ARG_OF_PERICENTER":60.982,"MEAN_ANOMALY":299.1521,"EPHEMERIS_TYPE":0,"CLASSIFICATION_TYPE":"U","NORAD_CAT_ID":67549,"ELEMENT_SET_NO":999,"REV_AT_EPOCH":850,"BSTAR":0.0012902,"MEAN_MOTION_DOT":0.00197159,"MEAN_MOTION_DDOT":0}]
